start=new Date('2023-03-01T00:00:00.000Z').valueOf();
sats=[{"ARG_OF_PERICENTER":"94.4115","MEAN_MOTION_DDOT":"0.0000000000000","APOAPSIS":"548.124","CLASSIFICATION_TYPE":"U","PERIAPSIS":"546.458","RCS_SIZE":"LARGE","CENTER_NAME":"EARTH","EPHEMERIS_TYPE":"0","BSTAR":"0.00086788000000","ECCENTRICITY":"0.00012030","MEAN_ANOMALY":"265.7011","FILE":"3847773","PERIOD":"95.594","SITE":"AFETR","GP_ID":"227273528","OBJECT_TYPE":"PAYLOAD","INCLINATION":"53.0560","REF_FRAME":"TEME","MEAN_ELEMENT_THEORY":"SGP4","RA_OF_ASC_NODE":"346.7238","EPOCH":"2023-02-28T18:51:23.720544","NORAD_CAT_ID":"45663","OBJECT_ID":"2020-035G","COUNTRY_CODE":"US","MEAN_MOTION":"15.06374721","SEMIMAJOR_AXIS":"6925.426","TLE_LINE2":"2 45663  53.0560 346.7238 0001203  94.4115 265.7011 15.06374721151788","ELEMENT_SET_NO":"999","TLE_LINE1":"1 45663U 20035G   23059.78569121  .00012660  00000-0  86788-3 0  9997","DECAY_DATE":null,"OBJECT_NAME":"STARLINK-1446","REV_AT_EPOCH":"15178","LAUNCH_DATE":"2020-06-04","MEAN_MOTION_DOT":"0.00012660","TIME_SYSTEM":"UTC"},{"BSTAR":"-0.00010297000000","EPHEMERIS_TYPE":"0","ECCENTRICITY":"0.00020330","FILE":"3847656","MEAN_ANOMALY":"180.0295","APOAPSIS":"548.683","MEAN_MOTION_DDOT":"0.0000000000000","ARG_OF_PERICENTER":"180.0694","PERIAPSIS":"545.867","CLASSIFICATION_TYPE":"U","RCS_SIZE":"LARGE","CENTER_NAME":"EARTH","SEMIMAJOR_AXIS":"6925.410","MEAN_MOTION":"15.06379842","ELEMENT_SET_NO":"999","TLE_LINE2":"2 45665  53.0545 346.2836 0002033 180.0694 180.0295 15.06379842151803","DECAY_DATE":null,"REV_AT_EPOCH":"15180","OBJECT_NAME":"STARLINK-1448","TLE_LINE1":"1 45665U 20035J   23059.88517876 -.00001814  00000-0 -10297-3 0  9993","MEAN_MOTION_DOT":"-0.00001814","TIME_SYSTEM":"UTC","LAUNCH_DATE":"2020-06-04","OBJECT_TYPE":"PAYLOAD","GP_ID":"227264817","SITE":"AFETR","PERIOD":"95.593","RA_OF_ASC_NODE":"346.2836","REF_FRAME":"TEME","MEAN_ELEMENT_THEORY":"SGP4","INCLINATION":"53.0545","EPOCH":"2023-02-28T21:14:39.444864","COUNTRY_CODE":"US","OBJECT_ID":"2020-035J","NORAD_CAT_ID":"45665"},{"FILE":"3847656","MEAN_ANOMALY":"251.2564","ECCENTRICITY":"0.00007470","BSTAR":"-0.00131300000000","EPHEMERIS_TYPE":"0","RCS_SIZE":"LARGE","CENTER_NAME":"EARTH","PERIAPSIS":"546.819","CLASSIFICATION_TYPE":"U","APOAPSIS":"547.854","MEAN_MOTION_DDOT":"0.0000000000000","ARG_OF_PERICENTER":"108.8506","TIME_SYSTEM":"UTC","MEAN_MOTION_DOT":"-0.00019763","LAUNCH_DATE":"2020-06-04","OBJECT_NAME":"STARLINK-1449","DECAY_DATE":null,"REV_AT_EPOCH":"15179","TLE_LINE1":"1 45666U 20035K   23059.82252217 -.00019763  00000-0 -13130-2 0  9993","ELEMENT_SET_NO":"999","TLE_LINE2":"2 45666  53.0540 346.5360 0000747 108.8506 251.2564 15.06359877151798","SEMIMAJOR_AXIS":"6925.472","MEAN_MOTION":"15.06359877","COUNTRY_CODE":"US","OBJECT_ID":"2020-035K","NORAD_CAT_ID":"45666","EPOCH":"2023-02-28T19:44:25.915488","RA_OF_ASC_NODE":"346.5360","REF_FRAME":"TEME","MEAN_ELEMENT_THEORY":"SGP4","INCLINATION":"53.0540","GP_ID":"227263067","OBJECT_TYPE":"PAYLOAD","SITE":"AFETR","PERIOD":"95.595"},{"OBJECT_ID":"2020-035L","COUNTRY_CODE":"US","NORAD_CAT_ID":"45667","EPOCH":"2023-02-28T21:23:56.296320","RA_OF_ASC_NODE":"346.2847","INCLINATION":"53.0535","REF_FRAME":"TEME","MEAN_ELEMENT_THEORY":"SGP4","OBJECT_TYPE":"PAYLOAD","GP_ID":"227263316","PERIOD":"95.593","SITE":"AFETR","LAUNCH_DATE":"2020-06-04","TIME_SYSTEM":"UTC","MEAN_MOTION_DOT":"0.00013370","REV_AT_EPOCH":"15185","DECAY_DATE":null,"OBJECT_NAME":"STARLINK-1450","TLE_LINE1":"1 45667U 20035L   23059.89162380  .00013370  00000-0  91519-3 0  9996","ELEMENT_SET_NO":"999","TLE_LINE2":"2 45667  53.0535 346.2847 0000518  89.8099 270.2949 15.06382201151853","SEMIMAJOR_AXIS":"6925.403","MEAN_MOTION":"15.06382201","CENTER_NAME":"EARTH","RCS_SIZE":"LARGE","PERIAPSIS":"546.909","CLASSIFICATION_TYPE":"U","APOAPSIS":"547.627","ARG_OF_PERICENTER":"89.8099","MEAN_MOTION_DDOT":"0.0000000000000","FILE":"3847656","MEAN_ANOMALY":"270.2949","ECCENTRICITY":"0.00005180","BSTAR":"0.00091519000000","EPHEMERIS_TYPE":"0"},{"EPHEMERIS_TYPE":"0","BSTAR":"0.00172270000000","MEAN_ANOMALY":"276.8196","FILE":"3847542","ECCENTRICITY":"0.00018230","CLASSIFICATION_TYPE":"U","PERIAPSIS":"545.752","MEAN_MOTION_DDOT":"0.0000000000000","ARG_OF_PERICENTER":"83.3000","APOAPSIS":"548.277","CENTER_NAME":"EARTH","RCS_SIZE":"LARGE","TLE_LINE2":"2 45668  53.0542 349.3821 0001823  83.3000 276.8196 15.06464895152115","ELEMENT_SET_NO":"999","MEAN_MOTION":"15.06464895","SEMIMAJOR_AXIS":"6925.150","TIME_SYSTEM":"UTC","MEAN_MOTION_DOT":"0.00025517","LAUNCH_DATE":"2020-06-04","TLE_LINE1":"1 45668U 20035M   23059.19495701  .00025517  00000-0  17227-2 0  9995","DECAY_DATE":null,"OBJECT_NAME":"STARLINK-1451","REV_AT_EPOCH":"15211","REF_FRAME":"TEME","MEAN_ELEMENT_THEORY":"SGP4","INCLINATION":"53.0542","RA_OF_ASC_NODE":"349.3821","SITE":"AFETR","PERIOD":"95.588","GP_ID":"227235185","OBJECT_TYPE":"PAYLOAD","NORAD_CAT_ID":"45668","COUNTRY_CODE":"US","OBJECT_ID":"2020-035M","EPOCH":"2023-02-28T04:40:44.285664"},{"NORAD_CAT_ID":"45669","OBJECT_ID":"2020-035N","COUNTRY_CODE":"US","EPOCH":"2023-02-28T04:15:33.868512","INCLINATION":"53.0555","MEAN_ELEMENT_THEORY":"SGP4","REF_FRAME":"TEME","RA_OF_ASC_NODE":"349.4639","PERIOD":"95.589","SITE":"AFETR","OBJECT_TYPE":"PAYLOAD","GP_ID":"227234433","LAUNCH_DATE":"2020-06-04","MEAN_MOTION_DOT":"0.00019712","TIME_SYSTEM":"UTC","TLE_LINE1":"1 45669U 20035N   23059.17747533  .00019712  00000-0  13365-2 0  9996","REV_AT_EPOCH":"15210","DECAY_DATE":null,"OBJECT_NAME":"STARLINK-1452","TLE_LINE2":"2 45669  53.0555 349.4639 0001712 120.3581 239.7578 15.06456788152104","ELEMENT_SET_NO":"999","MEAN_MOTION":"15.06456788","SEMIMAJOR_AXIS":"6925.175","RCS_SIZE":"LARGE","CENTER_NAME":"EARTH","CLASSIFICATION_TYPE":"U","PERIAPSIS":"545.854","ARG_OF_PERICENTER":"120.3581","MEAN_MOTION_DDOT":"0.0000000000000","APOAPSIS":"548.225","MEAN_ANOMALY":"239.7578","FILE":"3847542","ECCENTRICITY":"0.00017120","EPHEMERIS_TYPE":"0","BSTAR":"0.00133650000000"},{"PERIOD":"95.595","SITE":"AFETR","GP_ID":"227263566","OBJECT_TYPE":"PAYLOAD","INCLINATION":"53.0528","MEAN_ELEMENT_THEORY":"SGP4","REF_FRAME":"TEME","RA_OF_ASC_NODE":"316.2228","EPOCH":"2023-02-28T21:34:35.423040","NORAD_CAT_ID":"45670","OBJECT_ID":"2020-035P","COUNTRY_CODE":"US","MEAN_MOTION":"15.06351707","SEMIMAJOR_AXIS":"6925.497","TLE_LINE2":"2 45670  53.0528 316.2228 0001047 129.2508 230.8574 15.06351707152226","ELEMENT_SET_NO":"999","TLE_LINE1":"1 45670U 20035P   23059.89902110  .00008304  00000-0  57646-3 0  9997","DECAY_DATE":null,"REV_AT_EPOCH":"15222","OBJECT_NAME":"STARLINK-1453","LAUNCH_DATE":"2020-06-04","MEAN_MOTION_DOT":"0.00008304","TIME_SYSTEM":"UTC","ARG_OF_PERICENTER":"129.2508","MEAN_MOTION_DDOT":"0.0000000000000","APOAPSIS":"548.087","CLASSIFICATION_TYPE":"U","PERIAPSIS":"546.636","CENTER_NAME":"EARTH","RCS_SIZE":"LARGE","EPHEMERIS_TYPE":"0","BSTAR":"0.00057646000000","ECCENTRICITY":"0.00010470","MEAN_ANOMALY":"230.8574","FILE":"3847656"},{"CENTER_NAME":"EARTH","RCS_SIZE":"LARGE","CLASSIFICATION_TYPE":"U","PERIAPSIS":"546.257","MEAN_MOTION_DDOT":"0.0000000000000","ARG_OF_PERICENTER":"77.4989","APOAPSIS":"547.771","MEAN_ANOMALY":"282.6123","FILE":"3847542","ECCENTRICITY":"0.00010930","EPHEMERIS_TYPE":"0","BSTAR":"0.00183020000000","NORAD_CAT_ID":"45671","COUNTRY_CODE":"US","OBJECT_ID":"2020-035Q","EPOCH":"2023-02-28T04:20:51.991584","MEAN_ELEMENT_THEORY":"SGP4","REF_FRAME":"TEME","INCLINATION":"53.0542","RA_OF_ASC_NODE":"349.4424","SITE":"AFETR","PERIOD":"95.588","GP_ID":"227234935","OBJECT_TYPE":"PAYLOAD","TIME_SYSTEM":"UTC","MEAN_MOTION_DOT":"0.00027133","LAUNCH_DATE":"2020-06-04","TLE_LINE1":"1 45671U 20035Q   23059.18115731  .00027133  00000-0  18302-2 0  9991","DECAY_DATE":null,"REV_AT_EPOCH":"15209","OBJECT_NAME":"STARLINK-1454","TLE_LINE2":"2 45671  53.0542 349.4424 0001093  77.4989 282.6123 15.06465085152092","ELEMENT_SET_NO":"999","MEAN_MOTION":"15.06465085","SEMIMAJOR_AXIS":"6925.149"},{"EPOCH":"2023-02-28T22:06:26.061408","NORAD_CAT_ID":"45672","OBJECT_ID":"2020-035R","COUNTRY_CODE":"US","PERIOD":"95.596","SITE":"AFETR","OBJECT_TYPE":"PAYLOAD","GP_ID":"227264068","INCLINATION":"53.0519","REF_FRAME":"TEME","MEAN_ELEMENT_THEORY":"SGP4","RA_OF_ASC_NODE":"316.1214","TLE_LINE1":"1 45672U 20035R   23059.92113497  .00007744  00000-0  53910-3 0  9992","DECAY_DATE":null,"REV_AT_EPOCH":"15263","OBJECT_NAME":"STARLINK-1455","LAUNCH_DATE":"2020-06-04","MEAN_MOTION_DOT":"0.00007744","TIME_SYSTEM":"UTC","MEAN_MOTION":"15.06335348","SEMIMAJOR_AXIS":"6925.547","TLE_LINE2":"2 45672  53.0519 316.1214 0001246 137.2933 222.8153 15.06335348152636","ELEMENT_SET_NO":"999","CENTER_NAME":"EARTH","RCS_SIZE":"LARGE","ARG_OF_PERICENTER":"137.2933","MEAN_MOTION_DDOT":"0.0000000000000","APOAPSIS":"548.275","CLASSIFICATION_TYPE":"U","PERIAPSIS":"546.549","ECCENTRICITY":"0.00012460","MEAN_ANOMALY":"222.8153","FILE":"3847656","EPHEMERIS_TYPE":"0","BSTAR":"0.00053910000000"},{"MEAN_ANOMALY":"274.1992","FILE":"3847542","ECCENTRICITY":"0.00017430","EPHEMERIS_TYPE":"0","BSTAR":"0.00197890000000","CENTER_NAME":"EARTH","RCS_SIZE":"LARGE","CLASSIFICATION_TYPE":"U","PERIAPSIS":"545.817","MEAN_MOTION_DDOT":"0.0000000000000","ARG_OF_PERICENTER":"85.9196","APOAPSIS":"548.231","MEAN_MOTION_DOT":"0.00029367","TIME_SYSTEM":"UTC","LAUNCH_DATE":"2020-06-04","TLE_LINE1":"1 45673U 20035S   23059.19590454  .00029367  00000-0  19789-2 0  9994","REV_AT_EPOCH":"15211","DECAY_DATE":null,"OBJECT_NAME":"STARLINK-1456","TLE_LINE2":"2 45673  53.0533 349.3736 0001743  85.9196 274.1992 15.06461808152117","ELEMENT_SET_NO":"999","MEAN_MOTION":"15.06461808","SEMIMAJOR_AXIS":"6925.159","NORAD_CAT_ID":"45673","COUNTRY_CODE":"US","OBJECT_ID":"2020-035S","EPOCH":"2023-02-28T04:42:06.152256","MEAN_ELEMENT_THEORY":"SGP4","REF_FRAME":"TEME","INCLINATION":"53.0533","RA_OF_ASC_NODE":"349.3736","SITE":"AFETR","PERIOD":"95.588","OBJECT_TYPE":"PAYLOAD","GP_ID":"227233935"}];
